CAS-2T & KS-1Q          
1 41847U 16066G   21017.84926599  .00000049  00000-0  18621-4 0  9991
2 41847  98.6250  76.1857 0364513 309.9157  47.0512 14.38136703220230
NAYIF-1 (EO-88)         
1 42017U 17008BX  21017.72211866  .00001704  00000-0  66280-4 0  9992
2 42017  97.3361  87.9531 0004487 287.7622  72.3128 15.27374323218242
ZHUHAI-1 02 (CAS-4B)    
1 42759U 17034B   21017.88557375  .00000294  00000-0  31136-4 0  9994
2 42759  43.0180 288.7461 0011056 299.8794 145.5678 15.10044692198389
ZHUHAI-1 01 (CAS-4A)    
1 42761U 17034D   21017.81444831  .00000331  00000-0  33336-4 0  9998
2 42761  43.0188 288.2958 0011532 300.4018 122.4178 15.10125601198371
MAX VALIER SAT          
1 42778U 17036P   21017.68576626  .00000929  00000-0  42197-4 0  9999
2 42778  97.2776  71.0954 0011659 356.2077   3.9069 15.23142312198331
RADFXSAT (FOX-1B)       
1 43017U 17073E   21017.70923805  .00000599  00000-0  51045-4 0  9990
2 43017  97.7172 287.6066 0257284  72.1447 290.7647 14.79258126170837
FOX-1D (AO-92)          
1 43137U 18004AC  21017.74358189  .00001132  00000-0  48597-4 0  9991
2 43137  97.4243  93.2467 0009637  31.6879 328.4937 15.24721588167697
DIWATA-2B               
1 43678U 18084H   21017.79706522  .00000084  00000-0  14040-4 0  9993
2 43678  97.9046 142.5084 0009732 180.8080 179.3101 14.91699040120979
ES'HAIL 2               
1 43700U 18090A   21017.83590913  .00000143  00000-0  00000-0 0  9999
2 43700   0.0194  57.5989 0001551 282.9702 103.5681  1.00271161  7858
FOX-1CLIFF (AO-95)      
1 43770U 18099N   21017.74593941  .00000763  00000-0  74569-4 0  9992
2 43770  97.6840  91.1403 0014224 195.5980 164.4804 14.95170911115939
ITASAT 1                
1 43786U 18099AE  21017.82960294  .00000250  00000-0  27677-4 0  9996
2 43786  97.6859  91.7952 0014911 188.8632 171.2328 14.95487503115972
JY1SAT (JO-97)          
1 43803U 18099AX  21017.74975640  .00000817  00000-0  78377-4 0  9990
2 43803  97.6819  91.4903 0014966 188.9368 171.1589 14.95700355115968
PSAT2 (NO-104)          
1 44354U 19036R   21017.47511509  .00007155  00000-0  96082-4 0  9999
2 44354  28.5287  50.2124 0343653  84.6723 279.2973 15.08911757 86111
BRICSAT2 (NO-103)       
1 44355U 19036S   21017.26708118  .00013748  00000-0  16722-3 0  9998
2 44355  28.5284  26.8678 0302551 122.6233 240.3936 15.19564978 86336
JAISAT-1                
1 44419U 19038F   21017.83651916  .00001002  00000-0  59709-4 0  9990
2 44419  97.5687 343.3395 0022778 109.9684 250.4002 15.13300619 85015
DUCHIFAT-3              
1 44854U 19089C   21017.75979035  .00000421  00000-0  40265-4 0  9996
2 44854  36.9663 271.6697 0008934 349.0583  10.9967 14.99295972 60470
RS-44 & BREEZE-KM R/B   
1 44909U 19096E   21017.81378916  .00000008  00000-0 -19932-4 0  9992
2 44909  82.5194 212.8807 0218365  85.3613 277.2391 12.79708329 49604
ORBITAL FACTORY 2 (OF-2)
1 45113U 19071C   21017.77334003  .00001710  00000-0  61423-4 0  9999
2 45113  51.6432  47.4538 0012921 108.0928 252.1463 15.34600593 54021
HUSKYSAT-1              
1 45119U 19071J   21017.79182814  .00001505  00000-0  55238-4 0  9997
2 45119  51.6431  46.8260 0012257 104.8000 255.4341 15.34721860 54020
BY70-2                  
1 45857U 20042B   21017.82455089  .00000962  00000-0  14499-3 0  9996
2 45857  97.9982  95.1038 0010024 344.9230  15.1667 14.76626632 29317
SALSAT                  
1 46495U 20068K   21017.90731316  .00000931  00000-0  73000-4 0  9992
2 46495  97.6800 316.4277 0016065 221.0009 139.0010 15.03319457 16719
BY70-3                  
1 46839U 20079N   21017.81488734  .00002077  00000-0  68233-4 0  9994
2 46839  97.2583  94.6502 0008129  38.1014  70.7519 15.32654844 11125
OSCAR 7 (AO-7)          
1 07530U 74089B   21017.82509450 -.00000036  00000-0  57828-4 0  9991
2 07530 101.8338 352.6139 0012130 312.7998 106.1091 12.53646951112853
